satname,norad_id,inclination_deg,eccentricity,mean_motion_rev_per_day,perigee_km,apogee_km,l1,l2
STARLINK-1263,45405,53.1581,0.0001277,15.30190083,474.36950311316104,476.11985679422105,1 45405U 20019AX  26076.45860728  .00007103  00000+0  25180-3 0  9990,2 45405  53.1581  93.1848 0001277  77.9227 282.1917 15.30190083331161
STARLINK-1265,45406,53.1601,0.0001287,15.30191177,474.35938363173955,476.12344323535854,1 45406U 20019AY  26076.73463823  .00003202  00000+0  12021-3 0  9993,2 45406  53.1601  91.9777 0001287  91.2344 268.8804 15.30191177331208
STARLINK-1278,45408,53.0432,0.0003399,15.57634263,392.20392453934164,396.80796721394745,1 45408U 20019BA  26076.74173177  .00086667  00000+0  11455-2 0  9991,2 45408  53.0432  91.3589 0003399  66.6563 293.4806 15.57634263331215
STARLINK-1296,45412,53.1574,0.0001631,15.30588996,472.9362511487543,475.1714358018962,1 45412U 20019BE  26076.33587773  .00039705  00000+0  13295-2 0  9997,2 45412  53.1574  93.7264 0001631  81.7044 278.4141 15.30588996331142
STARLINK-1298,45413,53.0331,0.0002745,16.03613016,262.5992142431178,266.2459794617889,1 45413U 20019BF  26076.85703189  .00414553  88628-4  64306-3 0  9991,2 45413  53.0331  11.6443 0002745  71.8348 288.2982 16.03613016332422
STARLINK-1309,45414,53.0659,0.0006546,15.56357571,393.7734106128337,402.6450030668284,1 45414U 20019BG  26076.40184933  .00087868  00000+0  12169-2 0  9990,2 45414  53.0659  86.3037 0006546  58.2651 301.8997 15.56357571331237
STARLINK-1316,45415,53.1595,0.0001523,15.30512902,473.2373363669467,475.32458287744794,1 45415U 20019BH  26076.77295878  .00013601  00000+0  46601-3 0  9995,2 45415  53.1595  91.7438 0001523 118.7952 241.3202 15.30512902331239
STARLINK-1286,45417,53.0474,0.0003553,15.51442301,410.10146067019105,414.92689739801244,1 45417U 20019BK  26076.33782635  .00025793  00000+0  43611-3 0  9994,2 45417  53.0474  93.9559 0003553  75.1830 284.9572 15.51442301331411
STARLINK-1308,45419,53.0531,0.0003612,15.52112258,408.1078737843591,413.0120284618506,1 45419U 20019BM  26076.79948620  .00079058  00000+0  12809-2 0  9991,2 45419  53.0531 113.1151 0003612  43.2636 316.8656 15.52112258330936
STARLINK-1329,45531,53.0483,5.3e-05,15.58053218,392.93291257590954,393.6506840285292,1 45531U 20025A   26076.91670139  .00106596  00000+0  13822-2 0  9998,2 45531  53.0483  41.4459 0000530 122.1103 212.9339 15.58053218  5875
STARLINK-1338,45532,53.0478,0.0004778,15.56352982,394.98478255969985,401.46027172383765,1 45532U 20025B   26076.21930897  .00086220  00000+0  11951-2 0  9994,2 45532  53.0478  48.2936 0004778  39.3870 320.7488 15.56352982326577
STARLINK-1350,45535,53.0731,0.0002296,15.36347662,455.3511655101347,458.4898239117065,1 45535U 20025E   26076.79278285  .00009145  00000+0  26469-3 0  9998,2 45535  53.0731 355.0827 0002296  86.3115 273.8149 15.36347662327409
STARLINK-1362,45538,53.1615,0.0001496,15.29776323,475.45493376388276,477.505835285333,1 45538U 20025H   26076.23235347 -.00178369  00000+0 -62363-2 0  9991,2 45538  53.1615  65.9600 0001496  93.0272 267.0900 15.29776323326333
STARLINK-1368,45540,53.1613,0.0001009,15.30187656,474.5604196833774,475.94343356877016,1 45540U 20025K   26076.24202470 -.00000680  00000+0 -10831-4 0  9991,2 45540  53.1613  66.2488 0001009  90.0524 270.0592 15.30187656326326
STARLINK-1371,45542,53.0497,0.0001802,15.48427946,420.09905490932124,422.54958076827006,1 45542U 20025M   26076.62570370  .00069350  00000+0  12827-2 0  9994,2 45542  53.0497  51.4711 0001802  53.8054 306.3119 15.48427946326560
STARLINK-1372,45543,53.1605,0.0001198,15.30206553,474.3744741784267,476.01653264624474,1 45543U 20025N   26076.87193045  .00005144  00000+0  18566-3 0  9990,2 45543  53.1605  63.0174 0001198  71.7778 288.3354 15.30206553325520
STARLINK-1373,45544,53.0495,0.0005151,15.5222621,406.7310126098464,413.72438592303115,1 45544U 20025P   26076.62013085  .00052157  00000+0  84682-3 0  9997,2 45544  53.0495  50.8273 0005151  43.6694 316.4722 15.52226210326573
STARLINK-1327,45555,53.0471,0.0006293,15.55784232,395.60851911672216,404.1393236623835,1 45555U 20025AA  26076.88014371  .00082093  00000+0  11626-2 0  9995,2 45555  53.0471  27.0356 0006293  93.3581 266.8150 15.55784232326920
STARLINK-1356,45564,53.0524,0.0005947,15.46211185,423.7740644758569,431.8690715966777,1 45564U 20025AK  26076.62040717  .00076287  00000+0  15206-2 0  9996,2 45564  53.0524  36.0564 0005947  67.0319 293.1314 15.46211185326772
STARLINK-1357,45565,53.0514,0.0004606,15.57402947,392.05675349555986,398.2963299301855,1 45565U 20025AL  26076.66668981  .00153571  00000+0  20249-2 0  9995,2 45565  53.0514 359.3634 0004606 137.0728 166.2483 15.57402947  5922
STARLINK-1361,45567,53.05,0.0007496,15.49147585,414.12311522237906,424.31371045730884,1 45567U 20025AN  26076.56405820  .00082605  00000+0  14845-2 0  9991,2 45567  53.0500  36.2138 0007496  65.3508 294.8280 15.49147585326775
STARLINK-1363,45568,53.0439,0.0007539,15.78569942,329.4309957569012,339.55229723008415,1 45568U 20025AP  26076.04569536  .00108002  00000+0  60288-3 0  9993,2 45568  53.0439   0.9282 0007539  87.1467 273.0416 15.78569942327216
STARLINK-1366,45569,53.0437,0.0007775,15.7764057,331.9064969628662,342.34873343950494,1 45569U 20025AQ  26076.50877696  .00090010  00000+0  52548-3 0  9993,2 45569  53.0437 359.4411 0007775  88.2635 271.9275 15.77640570327274
STARLINK-1376,45570,53.1641,0.0001564,15.30573517,473.0283519200757,475.1717316667491,1 45570U 20025AR  26076.62206023  .00015819  00000+0  53888-3 0  9990,2 45570  53.1641  40.9555 0001564 114.1380 245.9785 15.30573517326711
STARLINK-1320,45572,53.048,0.0006469,15.69940003,354.7103518956719,363.4269485659406,1 45572U 20025AT  26076.63966506  .00057676  00000+0  47259-3 0  9994,2 45572  53.0480 306.4616 0006469  80.1964 279.9783 15.69940003328054
STARLINK-1321,45573,53.0489,0.0004481,15.49888185,414.00794605138344,420.09779521344444,1 45573U 20025AU  26076.56468944  .00082225  00000+0  14408-2 0  9997,2 45573  53.0489  20.7485 0004481  89.1318 271.0203 15.49888185326685
STARLINK-1331,45578,53.0532,0.0005661,15.49786894,413.50202290784455,421.1958720976072,1 45578U 20025AZ  26076.44359940  .00068389  00000+0  12058-2 0  9998,2 45578  53.0532  28.0126 0005661 110.2589 249.9028 15.49786894326884
STARLINK-1333,45580,53.1618,0.0001164,15.30195674,474.43025442160524,476.02571779037044,1 45580U 20025BB  26076.59645487 -.00000560  00000+0 -67843-5 0  9995,2 45580  53.1618  41.0811 0001164 103.0289 257.0842 15.30195674326716
STARLINK-1335,45581,53.1577,0.0001749,15.2938945,476.4372196720842,478.8353691704733,1 45581U 20025BC  26076.41435338  .00005520  00000+0  20328-3 0  9993,2 45581  53.1577  39.2147 0001749  81.2630 278.8569 15.29389450326710
STARLINK-1337,45582,53.0538,0.0005295,15.59359021,385.9275501869579,393.09448943994084,1 45582U 20025BD  26076.57164446  .00095478  00000+0  11803-2 0  9998,2 45582  53.0538  23.4434 0005295 109.7407 250.4176 15.59359021326948
STARLINK-1347,45586,53.0458,0.000535,15.558991,395.9142579289728,403.1663726563347,1 45586U 20025BH  26076.45888848  .00096106  00000+0  13520-2 0  9995,2 45586  53.0458 351.9246 0005350  95.6350 264.5271 15.55899100327378
STARLINK-1364,45589,53.0506,0.0007831,15.51053837,408.3293047987663,418.966598389954,1 45589U 20025BL  26076.16645297  .00084545  00000+0  14198-2 0  9991,2 45589  53.0506  27.3143 0007831  90.6733 269.5173 15.51053837326854
STARLINK-1365,45590,53.052,0.0004485,15.46626051,423.55250305407844,429.65635611641665,1 45590U 20025BM  26076.23233095  .00070155  00000+0  13807-2 0  9998,2 45590  53.0520  57.5688 0004485  71.8426 288.3069 15.46626051326450
STARLINK-1443,45660,53.1378,0.0003397,15.25903314,485.7418418320085,490.4067457850233,1 45660U 20035D   26076.57693680  .00047046  00000+0  18126-2 0  9996,2 45660  53.1378  28.5164 0003397  87.8351 272.3037 15.25903314319965
STARLINK-1446,45663,53.0244,5.72e-05,15.43240443,436.1632935799398,436.94289412667786,1 45663U 20035G   26076.84237763  .00012732  00000+0  29088-3 0  9999,2 45663  53.0244 320.6403 0000572 336.0032  24.0945 15.43240443320934
STARLINK-1448,45665,53.0512,0.0008106,15.54194977,398.9957414213859,409.9917423801562,1 45665U 20035J   26076.91670139  .00054038  00000+0  81606-3 0  9996,2 45665  53.0512  13.0630 0008106 111.7141  55.0483 15.54194977  5965
STARLINK-1451,45668,53.0546,0.0001991,15.10548134,533.1509158639792,535.903538759294,1 45668U 20035M   26076.88638852  .00023627  00000+0  14291-2 0  9996,2 45668  53.0546  29.0404 0001991  65.4706 294.6492 15.10548134319989
STARLINK-1452,45669,53.0321,0.0006753,15.46482599,422.42970304064056,431.6207551472544,1 45669U 20035N   26076.76244681  .00075734  00000+0  14954-2 0  9999,2 45669  53.0321 343.2260 0006753  89.6891 270.4889 15.46482599320611
STARLINK-1453,45670,53.0479,0.0005681,15.54447384,399.9066963645555,407.61228715849484,1 45670U 20035P   26076.87673794  .00096590  00000+0  14330-2 0  9995,2 45670  53.0479 333.8341 0005681  87.2988 272.8672 15.54447384320643
STARLINK-1454,45671,53.0506,0.0008342,15.52900571,402.6010705484159,413.92349911522797,1 45671U 20035Q   26076.91670139  .00051727  00000+0  81916-3 0  9999,2 45671  53.0506  13.2671 0008342  95.4864 192.7552 15.52900571  5907
STARLINK-1456,45673,53.05,0.0002306,15.51118377,411.8934099506605,415.0256942804963,1 45673U 20035S   26076.09574489  .00071484  00000+0  12021-2 0  9993,2 45673  53.0500  10.7590 0002306 135.3603 224.7592 15.51118377320177
STARLINK-1457,45674,53.047,0.0007914,15.80934326,322.4901362789451,333.1042889506725,1 45674U 20035T   26076.91670139  .00102408  00000+0  51377-3 0  9993,2 45674  53.0470 341.1614 0007914 103.6657  38.9366 15.80934326  5984
STARLINK-1458,45675,53.053,0.000699,15.43998234,429.5612449813034,439.0850642774749,1 45675U 20035U   26076.83586240  .00032517  00000+0  70793-3 0  9990,2 45675  53.0530  16.7836 0006990 106.7384 253.4389 15.43998234320118
